FENGYUN 1C DEB          
1 31249U 99025BMF 17345.01022177  .00002625  00000-0  81788-3 0  9994
2 31249  99.0058  65.6234 0076787 208.3688 151.3308 14.40130467165236
